[{"OBJECT_NAME":"STARLINK-32913","OBJECT_ID":"2025-037X","EPOCH":"2026-03-09T21:21:27.156096","MEAN_MOTION":14.98330525,"ECCENTRICITY":0.0002619,"INCLINATION":70.0039,"RA_OF_ASC_NODE":353.8791,"ARG_OF_PERICENTER":266.0186,"MEAN_ANOMALY":94.0674,"EPHEMERIS_TYPE":0,"CLASSIFICATION_TYPE":"U","NORAD_CAT_ID":63098,"ELEMENT_SET_NO":999,"REV_AT_EPOCH":5864,"BSTAR":0.00067472314,"MEAN_MOTION_DOT":7.967e-5,"MEAN_MOTION_DDOT":0},{"OBJECT_NAME":"COSMOS 2251 DEB","OBJECT_ID":"1993-036NN","EPOCH":"2026-03-09T07:26:11.225760","MEAN_MOTION":14.9633519,"ECCENTRICITY":0.00121484,"INCLINATION":74.0636,"RA_OF_ASC_NODE":162.8967,"ARG_OF_PERICENTER":260.3814,"MEAN_ANOMALY":99.5998,"EPHEMERIS_TYPE":0,"CLASSIFICATION_TYPE":"U","NORAD_CAT_ID":34316,"ELEMENT_SET_NO":999,"REV_AT_EPOCH":90502,"BSTAR":0.0021825431,"MEAN_MOTION_DOT":0.00024784,"MEAN_MOTION_DDOT":0}]
